[{"OBJECT_NAME":"ONEWEB-0129","OBJECT_ID":"2020-100T","EPOCH":"2026-03-09T19:49:05.035008","MEAN_MOTION":13.12442146,"ECCENTRICITY":0.00029436,"INCLINATION":87.9002,"RA_OF_ASC_NODE":10.3765,"ARG_OF_PERICENTER":75.1093,"MEAN_ANOMALY":285.0362,"EPHEMERIS_TYPE":0,"CLASSIFICATION_TYPE":"U","NORAD_CAT_ID":47275,"ELEMENT_SET_NO":999,"REV_AT_EPOCH":25164,"BSTAR":0.0011849656,"MEAN_MOTION_DOT":4.39e-6,"MEAN_MOTION_DDOT":0},{"OBJECT_NAME":"THOR ABLESTAR DEB","OBJECT_ID":"1961-015GT","EPOCH":"2026-03-09T16:25:25.853664","MEAN_MOTION":12.41461717,"ECCENTRICITY":0.06287409,"INCLINATION":67.7534,"RA_OF_ASC_NODE":154.8126,"ARG_OF_PERICENTER":5.8263,"MEAN_ANOMALY":104.9883,"EPHEMERIS_TYPE":0,"CLASSIFICATION_TYPE":"U","NORAD_CAT_ID":561,"ELEMENT_SET_NO":999,"REV_AT_EPOCH":92877,"BSTAR":0.0013387316,"MEAN_MOTION_DOT":3.18e-6,"MEAN_MOTION_DDOT":0}]
